OBJECT_NAME,OBJECT_ID,EPOCH,MEAN_MOTION,ECCENTRICITY,INCLINATION,RA_OF_ASC_NODE,ARG_OF_PERICENTER,MEAN_ANOMALY,EPHEMERIS_TYPE,CLASSIFICATION_TYPE,NORAD_CAT_ID,ELEMENT_SET_NO,REV_AT_EPOCH,BSTAR,MEAN_MOTION_DOT,MEAN_MOTION_DDOT
STARLINK-34716,2025-190B,2026-07-15T12:02:11.901696,15.30205010,.00010484,53.1587,294.5194,108.3378,251.7737,0,U,65352,999,4932,.23746498E-3,.6681E-4,0
STARLINK-34828,2025-190C,2026-07-15T12:58:16.270176,15.30199217,.00012756,53.1601,294.0473,77.8758,282.2385,0,U,65353,999,4933,.31266049E-3,.8912E-4,0
STARLINK-34785,2025-190D,2026-07-15T13:15:36.075168,15.34406802,.00012166,53.1578,292.7101,64.3556,295.7572,0,U,65354,999,4888,.56802507E-3,.18868E-3,0
STARLINK-34823,2025-190E,2026-07-15T14:56:38.056416,15.30201844,.000082,53.1583,293.8497,64.8805,295.2280,0,U,65355,999,4934,.24544E-3,.6917E-4,0
STARLINK-34680,2025-190F,2026-07-15T12:43:14.085696,15.30197293,.00010742,53.1603,294.6924,92.7149,267.3975,0,U,65356,999,4885,.28975947E-3,.8232E-4,0
STARLINK-34860,2025-190G,2026-07-15T12:06:01.471680,15.34389726,.00008982,53.1584,293.1212,84.8370,275.2736,0,U,65357,999,4887,.54046708E-3,.17922E-3,0
STARLINK-34782,2025-190H,2026-07-15T12:50:39.702336,15.30222477,.00003178,53.1600,294.0169,68.6850,291.4185,0,U,65358,999,4933,.83038718E-3,.24332E-3,0
STARLINK-34760,2025-190J,2026-07-15T13:07:23.515680,15.30197798,.00008556,53.1598,294.0860,68.0349,292.0743,0,U,65359,999,4886,.30058183E-3,.8553E-4,0
STARLINK-34826,2025-190K,2026-07-15T06:27:04.387392,15.34392696,.00008913,53.1600,293.7850,63.7337,296.3757,0,U,65360,999,4884,.5076695E-3,.16811E-3,0
STARLINK-34800,2025-190L,2026-07-15T12:49:09.192288,15.30198266,.00010478,53.1603,294.0048,92.9023,267.2097,0,U,65361,999,4886,.5484209E-3,.15917E-3,0
STARLINK-34817,2025-190M,2026-07-15T12:27:05.288544,15.34412253,.00013099,53.1588,292.4995,89.9070,270.2083,0,U,65362,999,4935,.36009701E-3,.11814E-3,0
STARLINK-34797,2025-190N,2026-07-15T11:56:55.981824,15.34393264,.00008481,53.1581,293.0798,69.2533,290.8560,0,U,65363,999,4934,.30935536E-3,.10088E-3,0
STARLINK-34729,2025-190P,2026-07-15T11:53:05.319744,15.30195986,.00008402,53.1593,294.4761,90.9381,269.1716,0,U,65364,999,4974,.19045955E-3,.5285E-4,0
STARLINK-34710,2025-190Q,2026-07-15T20:00:01.999008,15.33492837,.0001413,53.1596,293.2730,76.0159,162.8371,0,U,65365,999,589,.31918E-2,.105902E-2,0
STARLINK-34943,2025-190R,2026-07-15T11:59:57.782112,15.34389291,.00009563,53.1597,293.0915,79.6559,280.4552,0,U,65366,999,4887,.56672627E-3,.18813E-3,0
STARLINK-34946,2025-190S,2026-07-15T14:55:25.982400,15.34398295,.0000983,53.1585,292.4259,81.1662,278.9452,0,U,65367,999,4936,.24005E-3,.7742E-4,0
STARLINK-34259,2025-190T,2026-07-15T17:53:56.097024,15.34406755,.0001142,53.1585,291.7826,77.4403,282.6727,0,U,65368,999,4938,.51448E-3,.17049E-3,0
STARLINK-34913,2025-190U,2026-07-15T12:15:06.638400,15.34391456,.00009023,53.1580,293.1548,88.9136,271.1970,0,U,65369,999,4934,.43114003E-3,.14214E-3,0
STARLINK-34870,2025-190V,2026-07-15T15:02:41.997408,15.30218812,.0000854,53.1581,293.8755,75.8127,284.2969,0,U,65370,999,4887,.5868E-3,.1707E-3,0
STARLINK-34869,2025-190W,2026-07-15T15:05:45.385728,15.30196372,.0000877,53.1585,293.8850,65.3398,294.7694,0,U,65371,999,4934,.23052E-3,.6473E-4,0
STARLINK-34903,2025-190X,2026-07-15T13:13:27.936192,15.30181582,.00013015,53.1595,294.1057,88.5372,271.5778,0,U,65372,999,4933,.1664892E-3,.4572E-4,0
STARLINK-34891,2025-190Y,2026-07-15T11:11:29.183136,15.34396266,.00010368,53.1606,292.8712,85.6120,274.5001,0,U,65373,999,4882,.52190465E-3,.17296E-3,0
STARLINK-34900,2025-190Z,2026-07-15T13:18:00.694080,15.30193365,.0001196,53.1580,294.1264,77.4293,282.6842,0,U,65374,999,4881,.13151E-3,.3537E-4,0
STARLINK-34305,2025-190AA,2026-07-15T14:49:02.413920,15.30199037,.0000904,53.1583,293.8066,65.3776,294.7319,0,U,65375,999,4934,.40295E-3,.11593E-3,0
STARLINK-34249,2025-190AB,2026-07-15T12:33:09.470592,15.34406845,.00011153,53.1599,292.5142,112.4877,247.6244,0,U,65376,999,4977,.74059264E-3,.24734E-3,0
STARLINK-34879,2025-190AC,2026-07-15T13:02:49.664832,15.30207547,.00009898,53.1588,294.0560,48.6837,311.4249,0,U,65377,999,4933,.31136237E-3,.8876E-4,0
STARLINK-34912,2025-190AD,2026-07-15T12:53:42.569664,15.30197206,.00003101,53.1593,294.0180,95.5295,264.5741,0,U,65378,999,4933,.4484948E-3,.12946E-3,0
STARLINK-34985,2025-191A,2026-07-15T19:18:49.701024,15.05655977,.0002454,97.2829,65.6456,83.5962,276.5545,0,U,65379,999,4954,.12271E-3,.1715E-4,0
STARLINK-35051,2025-191B,2026-07-15T04:05:43.993248,15.05650585,.0002762,97.2857,65.1333,82.8797,277.2745,0,U,65380,999,4946,.43518857E-3,.6229E-4,0
STARLINK-35028,2025-191C,2026-07-15T13:15:58.808736,15.05659485,.00029749,97.2847,65.5344,85.4574,274.6993,0,U,65381,999,4951,.21153527E-3,.2998E-4,0
