STARLINK-34716          
1 65352U 25190B   26196.50152664  .00006681  00000+0  23746-3 0  9996
2 65352  53.1587 294.5194 0001048 108.3378 251.7737 15.30205010 49326
STARLINK-34828          
1 65353U 25190C   26196.54046609  .00008912  00000+0  31266-3 0  9997
2 65353  53.1601 294.0473 0001275  77.8758 282.2385 15.30199217 49333
STARLINK-34785          
1 65354U 25190D   26196.55250087  .00018868  00000+0  56803-3 0  9991
2 65354  53.1578 292.7101 0001216  64.3556 295.7572 15.34406802 48883
STARLINK-34823          
1 65355U 25190E   26196.62266269  .00006917  00000+0  24544-3 0  9998
2 65355  53.1583 293.8497 0000820  64.8805 295.2280 15.30201844 49340
STARLINK-34680          
1 65356U 25190F   26196.53002414  .00008232  00000+0  28976-3 0  9994
2 65356  53.1603 294.6924 0001074  92.7149 267.3975 15.30197293 48859
STARLINK-34860          
1 65357U 25190G   26196.50418370  .00017922  00000+0  54047-3 0  9998
2 65357  53.1584 293.1212 0000898  84.8370 275.2736 15.34389726 48876
STARLINK-34782          
1 65358U 25190H   26196.53518174  .00024332  00000+0  83039-3 0  9991
2 65358  53.1600 294.0169 0000317  68.6850 291.4185 15.30222477 49331
STARLINK-34760          
1 65359U 25190J   26196.54679995  .00008553  00000+0  30058-3 0  9992
2 65359  53.1598 294.0860 0000855  68.0349 292.0743 15.30197798 48861
STARLINK-34826          
1 65360U 25190K   26196.26880078  .00016811  00000+0  50767-3 0  9994
2 65360  53.1600 293.7850 0000891  63.7337 296.3757 15.34392696 48849
STARLINK-34800          
1 65361U 25190L   26196.53413417  .00015917  00000+0  54842-3 0  9998
2 65361  53.1603 294.0048 0001047  92.9023 267.2097 15.30198266 48865
STARLINK-34817          
1 65362U 25190M   26196.51881121  .00011814  00000+0  36010-3 0  9997
2 65362  53.1588 292.4995 0001309  89.9070 270.2083 15.34412253 49353
STARLINK-34797          
1 65363U 25190N   26196.49787016  .00010088  00000+0  30936-3 0  9996
2 65363  53.1581 293.0798 0000848  69.2533 290.8560 15.34393264 49344
STARLINK-34729          
1 65364U 25190P   26196.49520046  .00005285  00000+0  19046-3 0  9997
2 65364  53.1593 294.4761 0000840  90.9381 269.1716 15.30195986 49740
STARLINK-34710          
1 65365U 25190Q   26196.83335647  .00105902  00000+0  31918-2 0  9995
2 65365  53.1596 293.2730 0001413  76.0159 162.8371 15.33492837  5894
STARLINK-34943          
1 65366U 25190R   26196.49997433  .00018813  00000+0  56673-3 0  9995
2 65366  53.1597 293.0915 0000956  79.6559 280.4552 15.34389291 48876
STARLINK-34946          
1 65367U 25190S   26196.62182850  .00007742  00000+0  24005-3 0  9993
2 65367  53.1585 292.4259 0000983  81.1662 278.9452 15.34398295 49361
STARLINK-34259          
1 65368U 25190T   26196.74578816  .00017049  00000+0  51448-3 0  9990
2 65368  53.1585 291.7826 0001142  77.4403 282.6727 15.34406755 49383
STARLINK-34913          
1 65369U 25190U   26196.51049350  .00014214  00000+0  43114-3 0  9994
2 65369  53.1580 293.1548 0000902  88.9136 271.1970 15.34391456 49349
STARLINK-34870          
1 65370U 25190V   26196.62687497  .00017070  00000+0  58680-3 0  9995
2 65370  53.1581 293.8755 0000854  75.8127 284.2969 15.30218812 48870
STARLINK-34869          
1 65371U 25190W   26196.62899752  .00006473  00000+0  23052-3 0  9995
2 65371  53.1585 293.8850 0000877  65.3398 294.7694 15.30196372 49340
STARLINK-34903          
1 65372U 25190X   26196.55101778  .00004572  00000+0  16649-3 0  9994
2 65372  53.1595 294.1057 0001301  88.5372 271.5778 15.30181582 49339
STARLINK-34891          
1 65373U 25190Y   26196.46630999  .00017296  00000+0  52190-3 0  9995
2 65373  53.1606 292.8712 0001036  85.6120 274.5001 15.34396266 48826
STARLINK-34900          
1 65374U 25190Z   26196.55417470  .00003537  00000+0  13151-3 0  9990
2 65374  53.1580 294.1264 0001196  77.4293 282.6842 15.30193365 48815
STARLINK-34305          
1 65375U 25190AA  26196.61738905  .00011593  00000+0  40295-3 0  9997
2 65375  53.1583 293.8066 0000904  65.3776 294.7319 15.30199037 49347
STARLINK-34249          
1 65376U 25190AB  26196.52302628  .00024734  00000+0  74059-3 0  9993
2 65376  53.1599 292.5142 0001115 112.4877 247.6244 15.34406845 49770
STARLINK-34879          
1 65377U 25190AC  26196.54363038  .00008876  00000+0  31136-3 0  9996
2 65377  53.1588 294.0560 0000989  48.6837 311.4249 15.30207547 49335
STARLINK-34912          
1 65378U 25190AD  26196.53729826  .00012946  00000+0  44849-3 0  9995
2 65378  53.1593 294.0180 0000310  95.5295 264.5741 15.30197206 49332
STARLINK-34985          
1 65379U 25191A   26196.80474191  .00001715  00000+0  12271-3 0  9995
2 65379  97.2829  65.6456 0002454  83.5962 276.5545 15.05655977 49545
STARLINK-35051          
1 65380U 25191B   26196.17064807  .00006229  00000+0  43519-3 0  9990
2 65380  97.2857  65.1333 0002762  82.8797 277.2745 15.05650585 49468
STARLINK-35028          
1 65381U 25191C   26196.55276399  .00002998  00000+0  21154-3 0  9994
2 65381  97.2847  65.5344 0002974  85.4574 274.6993 15.05659485 49511
